{"type":"FeatureCollection","features":[{"type":"Feature","geometry":{"type":"Point","coordinates":[-6.852,30.974]},"properties":{"id":"gen-noor-i","name":"Noor I (Ouarzazate CSP)","capacity_mw":160,"fuel_type":"solar_csp","tech":"CSP parabolic trough","status":"operational","commissioning_year":2016,"operator":"MASEN / ACWA Power","region":"Central","precision":"exact","source":"Wikipedia / MASEN","source_url":"","description":"160 MW CSP parabolic trough with 3 hours of molten-salt thermal storage. First phase of the Ouarzazate complex. Demonstrated utility-scale CSP with storage in Africa."}},{"type":"Feature","geometry":{"type":"Point","coordinates":[-6.867,30.965]},"properties":{"id":"gen-noor-ii","name":"Noor II (Ouarzazate CSP)","capacity_mw":200,"fuel_type":"solar_csp","tech":"CSP parabolic trough","status":"operational","commissioning_year":2018,"operator":"MASEN / ACWA Power","region":"Central","precision":"exact","source":"Wikipedia / MASEN","source_url":"","description":"200 MW CSP parabolic trough with 7 hours of molten-salt storage. Enables dispatchable solar after sunset \u2014 critical for peak evening demand."}},{"type":"Feature","geometry":{"type":"Point","coordinates":[-6.88,30.97]},"properties":{"id":"gen-noor-iii","name":"Noor III (Ouarzazate CSP Tower)","capacity_mw":150,"fuel_type":"solar_csp","tech":"CSP central tower","status":"operational","commissioning_year":2018,"operator":"MASEN / ACWA Power / Sener","region":"Central","precision":"exact","source":"Wikipedia / MASEN","source_url":"","description":"150 MW CSP tower with 7.5 hours of storage. Africa's first utility-scale CSP tower. The 243m tower and 7,400 heliostats are a landmark of Morocco's clean energy transition."}},{"type":"Feature","geometry":{"type":"Point","coordinates":[-6.842,30.982]},"properties":{"id":"gen-noor-iv","name":"Noor IV (Ouarzazate PV)","capacity_mw":72,"fuel_type":"solar_pv","tech":"PV","status":"operational","commissioning_year":2018,"operator":"MASEN","region":"Central","precision":"~5km","source":"Wikipedia / MASEN","source_url":"","description":"72 MW PV plant adjacent to the Noor CSP complex. Completes the Ouarzazate site with total installed capacity of 582 MW across four technologies."}},{"type":"Feature","geometry":{"type":"Point","coordinates":[-4.73,32.67]},"properties":{"id":"gen-noor-midelt","name":"Noor Midelt Phase I","capacity_mw":800,"fuel_type":"solar_csp","tech":"Hybrid CSP + PV with storage","status":"under_construction","commissioning_year":2026,"operator":"MASEN / ACWA Power / Nareva","region":"Central / Atlas","precision":"~5km","source":"MASEN / World Bank","source_url":"","description":"World's first utility-scale hybrid CSP+PV with 5 hours of molten-salt storage (800 MW combined). Located on the Moulouya plateau at 1,500 m. Will deliver firm renewable power around the clock."}},{"type":"Feature","geometry":{"type":"Point","coordinates":[-13.18,27.15]},"properties":{"id":"gen-noor-laayoune","name":"Noor La\u00e2youne I","capacity_mw":80,"fuel_type":"solar_pv","tech":"PV","status":"operational","commissioning_year":2018,"operator":"MASEN","region":"Southern Provinces","precision":"~5km","source":"MASEN","source_url":"","description":"80 MW PV plant near La\u00e2youne in the southern provinces. Part of MASEN's program to electrify the Saharan regions from domestic renewable sources."}},{"type":"Feature","geometry":{"type":"Point","coordinates":[-14.49,26.13]},"properties":{"id":"gen-noor-boujdour","name":"Noor Boujdour I","capacity_mw":20,"fuel_type":"solar_pv","tech":"PV","status":"operational","commissioning_year":2016,"operator":"MASEN","region":"Southern Provinces","precision":"~5km","source":"MASEN","source_url":"","description":"20 MW PV plant near Boujdour. One of Morocco's early utility-scale PV projects in the southern provinces."}},{"type":"Feature","geometry":{"type":"Point","coordinates":[-2.07,33.97]},"properties":{"id":"gen-abm-solar","name":"Ain Beni Mathar ISCC (Solar Component)","capacity_mw":20,"fuel_type":"solar_csp","tech":"CSP parabolic trough (ISCC hybrid)","status":"operational","commissioning_year":2011,"operator":"ONEE","region":"Central / Atlas","precision":"exact","source":"ONEE / AfDB","source_url":"","description":"20 MW parabolic trough solar field integrated into the 472 MW Ain Beni Mathar ISCC combined cycle plant \u2014 Africa's first utility-scale solar-thermal hybrid."}},{"type":"Feature","geometry":{"type":"Point","coordinates":[-8.0,29.8]},"properties":{"id":"gen-noor-atlas","name":"Noor Atlas / Noor Argane (Tata)","capacity_mw":200,"fuel_type":"solar_pv","tech":"PV","status":"planned","commissioning_year":2027,"operator":"MASEN","region":"Southern Provinces","precision":"centroid","source":"MASEN pipeline / Wikipedia","source_url":"","description":"Part of MASEN's rolling pipeline of utility-scale PV projects in the Souss-Draa corridor (Noor Atlas 800 MW + Noor Argane 200 MW programme). GHI >2,400 kWh/m\u00b2/yr."}},{"type":"Feature","geometry":{"type":"Point","coordinates":[-12.9,27.98]},"properties":{"id":"gen-sebkhate-tah","name":"Sebkhate Tah Solar PV","capacity_mw":500,"fuel_type":"solar_pv","tech":"PV","status":"planned","commissioning_year":null,"operator":"MASEN","region":"Southern Provinces","precision":"centroid","source":"Wikipedia / MASEN","source_url":"","description":"500 MW planned PV project near Foum Al-Oued in the southern provinces. Part of Morocco's long-term green hydrogen and electricity export strategy."}},{"type":"Feature","geometry":{"type":"Point","coordinates":[-12.98,27.93]},"properties":{"id":"gen-tarfaya","name":"Tarfaya Wind Farm","capacity_mw":301,"fuel_type":"wind","tech":"Onshore wind","status":"operational","commissioning_year":2014,"operator":"Nareva / ENGIE (Tarec JV)","region":"Southern Provinces","precision":"exact","source":"Wikipedia / Nareva","source_url":"","description":"Africa's largest wind farm at commissioning (301 MW, 131 turbines \u00d7 2.3 MW). Located on the Atlantic coast near Tarfaya with capacity factors exceeding 40%. Operated under a 20-year PPA with ONEE."}},{"type":"Feature","geometry":{"type":"Point","coordinates":[-12.81,28.97]},"properties":{"id":"gen-akhfennir-1","name":"Akhfennir Wind Farm (Phase 1)","capacity_mw":100,"fuel_type":"wind","tech":"Onshore wind","status":"operational","commissioning_year":2013,"operator":"ONEE","region":"Southern Provinces","precision":"~5km","source":"Wikipedia / ONEE","source_url":"","description":"Phase 1 of the Akhfennir wind cluster on the southern Atlantic coast. Anchors the southern end of Morocco's Atlantic wind corridor with excellent trade wind resources."}},{"type":"Feature","geometry":{"type":"Point","coordinates":[-12.84,28.94]},"properties":{"id":"gen-akhfennir-2","name":"Akhfennir Wind Farm (Phase 2)","capacity_mw":100,"fuel_type":"wind","tech":"Onshore wind","status":"operational","commissioning_year":2017,"operator":"ONEE","region":"Southern Provinces","precision":"~5km","source":"Wikipedia / ONEE","source_url":"","description":"Phase 2 expansion of the Akhfennir complex, bringing total site capacity to 200 MW. Part of Morocco's Integrated Wind Programme."}},{"type":"Feature","geometry":{"type":"Point","coordinates":[-9.79,31.48]},"properties":{"id":"gen-cape-sim","name":"Amogdoul Wind Farm (Cape Sim)","capacity_mw":60,"fuel_type":"wind","tech":"Onshore wind","status":"operational","commissioning_year":2006,"operator":"ONEE","region":"Atlantic","precision":"~5km","source":"Wikipedia / ONEE","source_url":"","description":"Morocco's first large wind farm, commissioned 2006 near Essaouira. Exploits the Aliz\u00e9 trade winds along the Atlantic coast. Preceded the large-scale Integrated Wind Programme."}},{"type":"Feature","geometry":{"type":"Point","coordinates":[-5.65,35.75]},"properties":{"id":"gen-tangier-1","name":"Tangier I Wind Farm (Dhar Saadane)","capacity_mw":140,"fuel_type":"wind","tech":"Onshore wind","status":"operational","commissioning_year":2007,"operator":"ONEE","region":"North","precision":"~5km","source":"Wikipedia / ONEE","source_url":"","description":"140 MW wind farm in the Tangier peninsula, commissioned 2007. One of Morocco's earliest utility-scale wind projects, benefiting from strong Strait of Gibraltar wind acceleration."}},{"type":"Feature","geometry":{"type":"Point","coordinates":[-5.42,35.84]},"properties":{"id":"gen-khalladi","name":"Khalladi Wind Farm","capacity_mw":120,"fuel_type":"wind","tech":"Onshore wind","status":"operational","commissioning_year":2018,"operator":"Nareva","region":"North","precision":"~5km","source":"Wikipedia / Nareva","source_url":"","description":"120 MW IPP wind farm near Tangier, developed by Nareva. Sells under a long-term PPA."}},{"type":"Feature","geometry":{"type":"Point","coordinates":[-5.57,35.82]},"properties":{"id":"gen-haouma","name":"Haouma Wind Farm","capacity_mw":50,"fuel_type":"wind","tech":"Onshore wind","status":"operational","commissioning_year":2014,"operator":"Nareva","region":"North","precision":"~5km","source":"Wikipedia / Nareva","source_url":"","description":"50.6 MW wind farm near Ksar es-Seghir in the Strait of Gibraltar corridor, commissioned 2014 by Nareva."}},{"type":"Feature","geometry":{"type":"Point","coordinates":[-4.02,34.18]},"properties":{"id":"gen-taza","name":"Taza Wind Farm","capacity_mw":150,"fuel_type":"wind","tech":"Onshore wind","status":"operational","commissioning_year":2024,"operator":"Nareva / EDF Renouvelables / Mitsui","region":"Central / Atlas","precision":"~5km","source":"Wikipedia / Nareva","source_url":"","description":"150 MW in the Rif mountain foothills near Taza. First major wind farm in Morocco's interior, demonstrating viable resources beyond the Atlantic coast."}},{"type":"Feature","geometry":{"type":"Point","coordinates":[-4.75,32.69]},"properties":{"id":"gen-midelt-wind","name":"Midelt Wind Farm","capacity_mw":210,"fuel_type":"wind","tech":"Onshore wind","status":"operational","commissioning_year":2021,"operator":"MASEN / Nareva","region":"Central / Atlas","precision":"~5km","source":"Wikipedia / MASEN","source_url":"","description":"210 MW wind farm on the Moulouya plateau near Midelt, co-located in the same region as the Noor Midelt solar project. Part of Morocco's integrated renewable energy zone strategy."}},{"type":"Feature","geometry":{"type":"Point","coordinates":[-14.32,26.05]},"properties":{"id":"gen-aftissat","name":"Aftissat Wind Farm","capacity_mw":201,"fuel_type":"wind","tech":"Onshore wind","status":"operational","commissioning_year":2018,"operator":"ONEE / MASEN","region":"Southern Provinces","precision":"~5km","source":"Wikipedia / ONEE","source_url":"","description":"201 MW wind farm near Boujdour in the southern provinces, commissioned 2018. Demonstrates the exceptional wind resources of the Saharan Atlantic coast, with some of the highest capacity factors in Africa."}},{"type":"Feature","geometry":{"type":"Point","coordinates":[-13.52,27.12]},"properties":{"id":"gen-foum-el-oued","name":"Foum el Oued Wind Farm","capacity_mw":50,"fuel_type":"wind","tech":"Onshore wind","status":"operational","commissioning_year":2013,"operator":"ONEE","region":"Southern Provinces","precision":"~5km","source":"Wikipedia / ONEE","source_url":"","description":"50.1 MW wind farm near Laayoune commissioned 2013. Part of the first tranche of Morocco's Integrated Wind Programme in the southern provinces."}},{"type":"Feature","geometry":{"type":"Point","coordinates":[-14.48,26.12]},"properties":{"id":"gen-boujdour","name":"Boujdour Wind Farm","capacity_mw":100,"fuel_type":"wind","tech":"Onshore wind","status":"operational","commissioning_year":2015,"operator":"ONEE / MASEN","region":"Southern Provinces","precision":"~5km","source":"Wikipedia / ONEE","source_url":"","description":"100 MW near Boujdour. Precursor to larger planned developments in the Saharan Atlantic corridor."}},{"type":"Feature","geometry":{"type":"Point","coordinates":[-5.78,35.78]},"properties":{"id":"gen-tanger2","name":"Tanger 2 Wind Farm","capacity_mw":150,"fuel_type":"wind","tech":"Onshore wind","status":"planned","commissioning_year":null,"operator":"Enel / Nareva","region":"North","precision":"centroid","source":"Wikipedia / MASEN pipeline","source_url":"","description":"150 MW planned wind farm in northern Morocco, part of MASEN's Integrated Wind Programme Phase 2 developed by Enel/Nareva consortium."}},{"type":"Feature","geometry":{"type":"Point","coordinates":[-9.45,31.62]},"properties":{"id":"gen-jbel-lahdid","name":"Jbel Lahdid Wind Farm (Essaouira)","capacity_mw":200,"fuel_type":"wind","tech":"Onshore wind","status":"planned","commissioning_year":null,"operator":"Enel / Nareva","region":"Atlantic","precision":"centroid","source":"Wikipedia / MASEN pipeline","source_url":"","description":"200 MW planned wind farm south of Essaouira, part of MASEN's Integrated Wind Programme Phase 2."}},{"type":"Feature","geometry":{"type":"Point","coordinates":[-13.1,27.15]},"properties":{"id":"gen-tiskrad","name":"Tiskrad Wind Farm (Laayoune)","capacity_mw":300,"fuel_type":"wind","tech":"Onshore wind","status":"planned","commissioning_year":null,"operator":"Enel / Nareva","region":"Southern Provinces","precision":"centroid","source":"Wikipedia / MASEN pipeline","source_url":"","description":"300 MW planned wind farm near Laayoune, part of Morocco's large-scale renewable buildout in the southern provinces targeting green hydrogen export potential."}},{"type":"Feature","geometry":{"type":"Point","coordinates":[-8.63,33.09]},"properties":{"id":"gen-jorf","name":"Jorf Lasfar Thermal Complex","capacity_mw":2056,"fuel_type":"coal","tech":"Coal steam","status":"operational","commissioning_year":1994,"operator":"JLEC (TAQA) / ONEE","region":"Atlantic","precision":"exact","source":"TAQA / ONEE","source_url":"","description":"Morocco's single largest power station (2,056 MW, Units 1\u20136). Backbone of national baseload. Shares Jorf Lasfar industrial port with OCP phosphate complex. Primary candidate for phased coal retirement under Morocco's NDC."}},{"type":"Feature","geometry":{"type":"Point","coordinates":[-9.28,32.28]},"properties":{"id":"gen-safi","name":"Safi Coal Power Plant","capacity_mw":1386,"fuel_type":"coal","tech":"Coal steam","status":"operational","commissioning_year":2017,"operator":"Nareva / EDF / ONEE","region":"Atlantic","precision":"~5km","source":"Wikipedia / Nareva","source_url":"","description":"1,386 MW coal IPP near Safi, developed by Nareva/EDF. Morocco's newest and largest coal plant. Commissioned 2017 under a 25-year PPA with ONEE."}},{"type":"Feature","geometry":{"type":"Point","coordinates":[-2.93,35.17]},"properties":{"id":"gen-nador","name":"Nador West Med Coal Plant","capacity_mw":1320,"fuel_type":"coal","tech":"Coal steam","status":"under_construction","commissioning_year":2025,"operator":"ONEE","region":"North","precision":"~5km","source":"Wikipedia / ONEE","source_url":"","description":"1,320 MW coal plant under construction at Nador West Med industrial port. Controversial given Morocco's RE targets. When complete will add significant baseload capacity in the northeastern grid."}},{"type":"Feature","geometry":{"type":"Point","coordinates":[-2.07,33.97]},"properties":{"id":"gen-abm","name":"Ain Beni Mathar ISCC","capacity_mw":472,"fuel_type":"gas_iscc","tech":"Integrated Solar Combined Cycle (ISCC)","status":"operational","commissioning_year":2011,"operator":"ONEE","region":"Central / Atlas","precision":"exact","source":"ONEE / AfDB","source_url":"","description":"Africa's first ISCC plant: 20 MW parabolic trough + 452 MW gas CCGT. Located in the Oriental region. The solar component displaces ~12,000 t CO\u2082/yr."}},{"type":"Feature","geometry":{"type":"Point","coordinates":[-5.44,35.7]},"properties":{"id":"gen-tahaddart","name":"Tahaddart CCGT","capacity_mw":384,"fuel_type":"gas_ccgt","tech":"Combined cycle gas turbine","status":"operational","commissioning_year":2005,"operator":"ONEE / EDF / Endesa","region":"North","precision":"~5km","source":"ONEE","source_url":"","description":"Morocco's first IPP under a BOT contract (384 MW). Receives Algerian gas via the Maghreb\u2013Europe Pipeline. Serves as mid-merit capacity for the northern grid and Spain interconnect."}},{"type":"Feature","geometry":{"type":"Point","coordinates":[-7.37,33.73]},"properties":{"id":"gen-mohammedia","name":"Mohammedia Thermal Plant","capacity_mw":600,"fuel_type":"hfo","tech":"Heavy fuel oil / gas","status":"operational","commissioning_year":1983,"operator":"ONEE","region":"Atlantic","precision":"~5km","source":"ONEE","source_url":"","description":"600 MW aging HFO plant near Mohammedia. Increasingly operated as strategic reserve given high marginal costs vs renewables. Candidate for decommissioning or flexibility conversion."}},{"type":"Feature","geometry":{"type":"Point","coordinates":[-2.16,34.31]},"properties":{"id":"gen-jerada","name":"Jerada Coal Plant","capacity_mw":515,"fuel_type":"coal","tech":"Coal steam","status":"operational","commissioning_year":2017,"operator":"ONEE","region":"Central / Atlas","precision":"~5km","source":"Wikipedia / ONEE","source_url":"","description":"515 MW coal plant at Jerada in the Oriental region. Located near Morocco's historic coal mining basin. Subject to social pressure from local communities following a 2017\u20132018 protest movement."}},{"type":"Feature","geometry":{"type":"Point","coordinates":[-6.57,34.26]},"properties":{"id":"gen-kenitra","name":"Kenitra Thermal Plant","capacity_mw":615,"fuel_type":"coal","tech":"Coal / Gas","status":"operational","commissioning_year":1978,"operator":"ONEE","region":"Central / Atlas","precision":"~5km","source":"Wikipedia / ONEE","source_url":"","description":"615 MW mixed coal/gas plant at Kenitra (300 MW coal + 315 MW gas units). Serves the Rabat\u2013Kenitra industrial corridor."}},{"type":"Feature","geometry":{"type":"Point","coordinates":[-6.51,32.22]},"properties":{"id":"gen-afourer","name":"Afourer Pumped Storage (STEP)","capacity_mw":465,"fuel_type":"pumped_storage","tech":"Pumped storage hydro","status":"operational","commissioning_year":2004,"operator":"ONEE","region":"Central","precision":"~5km","source":"Wikipedia / ONEE","source_url":"","description":"465 MW pumped storage facility (STEP Afourer) in the High Atlas, operational since 2004. Morocco's largest grid flexibility asset \u2014 stores surplus overnight generation and dispatches during morning/evening peaks."}},{"type":"Feature","geometry":{"type":"Point","coordinates":[-9.0,30.37]},"properties":{"id":"gen-abdel","name":"Abdelmoumen Pumped Storage (STEP)","capacity_mw":350,"fuel_type":"pumped_storage","tech":"Pumped storage hydro","status":"under_construction","commissioning_year":2027,"operator":"ONEE","region":"Atlantic","precision":"~5km","source":"ONEE / World Bank","source_url":"","description":"350 MW STEP in the Souss-Massa region. Morocco's next major pumped storage project, critical for absorbing variable RE as the country targets 52% renewable by 2030."}},{"type":"Feature","geometry":{"type":"Point","coordinates":[-6.47,32.08]},"properties":{"id":"gen-bin-ouidane","name":"Bin el Ouidane Dam","capacity_mw":135,"fuel_type":"hydro","tech":"Reservoir hydro","status":"operational","commissioning_year":1953,"operator":"ONEE","region":"Central","precision":"exact","source":"ONEE / Wikipedia","source_url":"","description":"135 MW on the Oued El Abid in the High Atlas. One of Morocco's oldest hydroelectric facilities; output highly variable with precipitation."}},{"type":"Feature","geometry":{"type":"Point","coordinates":[-5.16,34.52]},"properties":{"id":"gen-al-wahda","name":"Al Wahda Dam","capacity_mw":240,"fuel_type":"hydro","tech":"Reservoir hydro","status":"operational","commissioning_year":1996,"operator":"ONEE","region":"North","precision":"exact","source":"ONEE / Wikipedia","source_url":"","description":"240 MW on the Oued Ouerrha in the Rif. Africa's second-largest dam by storage volume. Provides both power and irrigation for the Gharb plain."}},{"type":"Feature","geometry":{"type":"Point","coordinates":[-6.41,31.97]},"properties":{"id":"gen-allal-fassi","name":"Allal al Fassi Dam","capacity_mw":240,"fuel_type":"hydro","tech":"Reservoir hydro","status":"operational","commissioning_year":1994,"operator":"ONEE","region":"Central","precision":"~5km","source":"Wikipedia / ONEE","source_url":"","description":"240 MW reservoir plant on the Oued Ouerrha, commissioned 1994."}},{"type":"Feature","geometry":{"type":"Point","coordinates":[-7.48,32.52]},"properties":{"id":"gen-al-massira","name":"Al Massira Dam","capacity_mw":128,"fuel_type":"hydro","tech":"Reservoir hydro","status":"operational","commissioning_year":1979,"operator":"ONEE","region":"Atlantic","precision":"~5km","source":"Wikipedia / ONEE","source_url":"","description":"128 MW on the Oued Oum er-Rbia near Settat. Major water supply reservoir for the Doukkala-Abda region."}},{"type":"Feature","geometry":{"type":"Point","coordinates":[-5.6,33.1]},"properties":{"id":"gen-hassan-ii","name":"Hassan II Dam (STEP)","capacity_mw":180,"fuel_type":"pumped_storage","tech":"Pumped storage hydro","status":"operational","commissioning_year":1994,"operator":"ONEE","region":"Central / Atlas","precision":"~5km","source":"ONEE","source_url":"","description":"180 MW STEP in the Middle Atlas. Morocco's first pumped storage facility, providing peaking capacity and frequency regulation."}},{"type":"Feature","geometry":{"type":"Point","coordinates":[-4.95,33.53]},"properties":{"id":"gen-idriss-i","name":"Idriss I Dam","capacity_mw":40,"fuel_type":"hydro","tech":"Reservoir hydro","status":"operational","commissioning_year":1978,"operator":"ONEE","region":"Central / Atlas","precision":"~5km","source":"Wikipedia / ONEE","source_url":"","description":"40 MW on the Oued Inaou\u00e8ne. Part of Morocco's historic hydroelectric network in the Middle Atlas."}},{"type":"Feature","geometry":{"type":"Point","coordinates":[-4.92,32.02]},"properties":{"id":"gen-hassan-i","name":"Hassan I Dam","capacity_mw":67,"fuel_type":"hydro","tech":"Reservoir hydro","status":"operational","commissioning_year":1991,"operator":"ONEE","region":"Central","precision":"~5km","source":"Wikipedia / ONEE","source_url":"","description":"67 MW on the Oued El Abid near Demnate in the High Atlas."}}]}